OBJECT_NAME,OBJECT_ID,EPOCH,MEAN_MOTION,ECCENTRICITY,INCLINATION,RA_OF_ASC_NODE,ARG_OF_PERICENTER,MEAN_ANOMALY,EPHEMERIS_TYPE,CLASSIFICATION_TYPE,NORAD_CAT_ID,ELEMENT_SET_NO,REV_AT_EPOCH,BSTAR,MEAN_MOTION_DOT,MEAN_MOTION_DDOT
INTELSAT 23 (IS-23),2012-057A,2026-07-18T06:07:48.376128,1.00262844,.0000688,0.0119,332.4210,276.1783,86.3552,0,U,38867,999,5026,0,-.293E-5,0
FM-6,2013-058A,2026-07-18T05:10:38.483616,1.00271280,.00016402,0.0125,33.6223,149.6904,74.0091,0,U,39360,999,4638,0,-.24E-6,0
INTELSAT 30 (IS-30),2014-062A,2026-07-18T05:55:49.523808,1.00272279,.00014804,0.0187,57.8070,330.9334,261.2174,0,U,40271,999,710,0,-.159E-5,0
DIRECTV 14,2014-078B,2026-07-18T05:53:30.220224,1.00270292,.0000304,0.0115,48.2921,325.1771,271.7095,0,U,40333,999,4235,0,-.133E-5,0
DIRECTV 15,2015-026A,2026-07-18T05:37:31.543968,1.00272070,.00001743,0.0233,79.8482,339.5184,218.1648,0,U,40663,999,4077,0,-.111E-5,0
SKY MEXICO-1,2015-026B,2026-07-18T06:00:26.580960,1.00272863,.00023727,0.0154,70.9192,61.8295,174.6169,0,U,40664,999,4076,0,-.242E-5,0
INTELSAT 34 (IS-34),2015-039A,2026-07-18T04:24:26.044128,1.00273425,.00004441,0.0104,22.8671,356.7138,287.0201,0,U,40874,999,3994,0,-.294E-5,0
INTELSAT 31 (IS-31),2016-035A,2026-07-18T05:55:49.523808,1.00272135,.00010238,0.0026,252.3838,37.9299,359.6418,0,U,41581,999,3699,0,-.159E-5,0
INTELSAT 36 (IS-36),2016-053A,2026-07-18T04:13:38.521056,1.00272889,.00023607,0.0101,31.5291,315.0581,81.2885,0,U,41747,999,3626,0,-.33E-6,0
INTELSAT 32E (IS-32E),2017-007B,2026-07-18T04:27:38.602944,1.00272899,.00004627,0.0158,58.6238,322.5708,298.5164,0,U,41945,999,3453,0,-.277E-5,0
INTELSAT 35E (IS-35E),2017-041A,2026-07-18T06:13:02.872992,1.00272727,.00019266,0.0177,59.6313,58.8360,236.3544,0,U,42818,999,3312,0,-.246E-5,0
INTELSAT 37E (IS-37E),2017-059A,2026-07-18T05:26:38.777280,1.00272876,.00026429,0.0145,78.8794,41.3597,239.4431,0,U,42950,999,3237,0,-.149E-5,0
AZERSPACE 2 (IS-38),2018-074A,2026-07-18T04:53:08.293344,1.00263485,.00012339,0.0164,47.1691,45.3509,321.8969,0,U,43632,999,2875,0,0,0
HORIZONS-3E,2018-074B,2026-07-18T06:14:38.808960,1.00271475,.00007383,0.0239,269.5575,19.0128,270.1407,0,U,43633,999,2865,0,-.39E-6,0
AT&T T-16,2019-034A,2026-07-18T04:11:32.908416,1.00272562,.00007171,0.0147,74.1715,274.2541,269.5834,0,U,44333,999,2594,0,-.124E-5,0
INTELSAT 39 (IS-39),2019-049B,2026-07-18T04:57:52.837920,1.00269789,.00008951,0.0210,57.4033,296.0964,78.9368,0,U,44476,999,2543,0,0,0
GALAXY 30 (G-30),2020-056C,2026-07-18T05:18:38.669760,1.00271192,.00022943,0.0231,61.1838,58.1239,131.3923,0,U,46114,999,2160,0,0,0
GALAXY 33 (G-33),2022-128A,2026-07-18T05:41:12.511104,1.00270038,.00018696,0.0173,63.8723,50.0335,134.4194,0,U,54026,999,1405,0,.71E-6,0
GALAXY 34 (G-34),2022-128B,2026-07-18T05:40:30.902592,1.00267752,.00015749,0.0109,72.7228,50.4297,129.0028,0,U,54027,999,1422,0,.51E-6,0
GALAXY 31 (G-31),2022-153A,2026-07-18T05:10:38.483616,1.00272171,.00011125,0.0197,94.0188,25.6447,132.9990,0,U,54243,999,744,0,.5E-7,0
GALAXY 32 (G-32),2022-153B,2026-07-18T05:56:56.915808,1.00272391,.00013825,0.0126,53.9777,353.7293,246.5821,0,U,54244,999,1345,0,-.182E-5,0
GALAXY 35 (G-35),2022-170A,2026-07-18T05:56:19.476096,1.00272225,.00018927,0.0148,92.4022,24.1465,175.4713,0,U,54741,999,1320,0,-.17E-5,0
GALAXY 36 (G-36),2022-170B,2026-07-18T05:57:34.357248,1.00271825,.00026399,0.0180,141.7564,316.9702,197.7171,0,U,54742,999,1308,0,-.193E-5,0
GALAXY 37 (G-37),2023-112A,2026-07-18T05:18:38.669760,1.00270260,.00020627,0.0204,57.5334,57.5568,133.6045,0,U,57493,999,1085,0,0,0
