INTELSAT 23 (IS-23)     
1 38867U 12057A   26199.25542102 -.00000293  00000+0  00000+0 0  9998
2 38867   0.0119 332.4210 0000688 276.1783  86.3552  1.00262844 50265
FM-6                    
1 39360U 13058A   26199.21572319 -.00000024  00000+0  00000+0 0  9990
2 39360   0.0125  33.6223 0001640 149.6904  74.0091  1.00271280 46387
INTELSAT 30 (IS-30)     
1 40271U 14062A   26199.24710097 -.00000159  00000+0  00000+0 0  9998
2 40271   0.0187  57.8070 0001480 330.9334 261.2174  1.00272279  7108
DIRECTV 14              
1 40333U 14078B   26199.24548866 -.00000133  00000+0  00000+0 0  9999
2 40333   0.0115  48.2921 0000304 325.1771 271.7095  1.00270292 42359
DIRECTV 15              
1 40663U 15026A   26199.23439287 -.00000111  00000+0  00000+0 0  9990
2 40663   0.0233  79.8482 0000174 339.5184 218.1648  1.00272070 40779
SKY MEXICO-1            
1 40664U 15026B   26199.25030765 -.00000242  00000+0  00000+0 0  9996
2 40664   0.0154  70.9192 0002372  61.8295 174.6169  1.00272863 40765
INTELSAT 34 (IS-34)     
1 40874U 15039A   26199.18363477 -.00000294  00000+0  00000+0 0  9991
2 40874   0.0104  22.8671 0000444 356.7138 287.0201  1.00273425 39940
INTELSAT 31 (IS-31)     
1 41581U 16035A   26199.24710097 -.00000159  00000+0  00000+0 0  9995
2 41581   0.0026 252.3838 0001023  37.9299 359.6418  1.00272135 36999
INTELSAT 36 (IS-36)     
1 41747U 16053A   26199.17614029 -.00000033  00000+0  00000+0 0  9990
2 41747   0.0101  31.5291 0002360 315.0581  81.2885  1.00272889 36268
INTELSAT 32E (IS-32E)   
1 41945U 17007B   26199.18586346 -.00000277  00000+0  00000+0 0  9991
2 41945   0.0158  58.6238 0000462 322.5708 298.5164  1.00272899 34538
INTELSAT 35E (IS-35E)   
1 42818U 17041A   26199.25906103 -.00000246  00000+0  00000+0 0  9990
2 42818   0.0177  59.6313 0001926  58.8360 236.3544  1.00272727 33129
INTELSAT 37E (IS-37E)   
1 42950U 17059A   26199.22683770 -.00000149  00000+0  00000+0 0  9997
2 42950   0.0145  78.8794 0002642  41.3597 239.4431  1.00272876 32372
AZERSPACE 2 (IS-38)     
1 43632U 18074A   26199.20356821  .00000000  00000+0  00000+0 0  9990
2 43632   0.0164  47.1691 0001233  45.3509 321.8969  1.00263485 28753
HORIZONS-3E             
1 43633U 18074B   26199.26017140 -.00000039  00000+0  00000+0 0  9998
2 43633   0.0239 269.5575 0000738  19.0128 270.1407  1.00271475 28652
AT&T T-16               
1 44333U 19034A   26199.17468644 -.00000124  00000+0  00000+0 0  9997
2 44333   0.0147  74.1715 0000717 274.2541 269.5834  1.00272562 25948
INTELSAT 39 (IS-39)     
1 44476U 19049B   26199.20686155  .00000000  00000+0  00000+0 0  9996
2 44476   0.0210  57.4033 0000895 296.0964  78.9368  1.00269789 25437
GALAXY 30 (G-30)        
1 46114U 20056C   26199.22128090  .00000000  00000+0  00000+0 0  9998
2 46114   0.0231  61.1838 0002294  58.1239 131.3923  1.00271192 21600
GALAXY 33 (G-33)        
1 54026U 22128A   26199.23695036  .00000071  00000+0  00000+0 0  9999
2 54026   0.0173  63.8723 0001869  50.0335 134.4194  1.00270038 14056
GALAXY 34 (G-34)        
1 54027U 22128B   26199.23646878  .00000051  00000+0  00000+0 0  9998
2 54027   0.0109  72.7228 0001574  50.4297 129.0028  1.00267752 14223
GALAXY 31 (G-31)        
1 54243U 22153A   26199.21572319  .00000005  00000+0  00000+0 0  9991
2 54243   0.0197  94.0188 0001112  25.6447 132.9990  1.00272171  7449
GALAXY 32 (G-32)        
1 54244U 22153B   26199.24788097 -.00000182  00000+0  00000+0 0  9994
2 54244   0.0126  53.9777 0001382 353.7293 246.5821  1.00272391 13450
GALAXY 35 (G-35)        
1 54741U 22170A   26199.24744764 -.00000170  00000+0  00000+0 0  9995
2 54741   0.0148  92.4022 0001892  24.1465 175.4713  1.00272225 13202
GALAXY 36 (G-36)        
1 54742U 22170B   26199.24831432 -.00000193  00000+0  00000+0 0  9990
2 54742   0.0180 141.7564 0002639 316.9702 197.7171  1.00271825 13080
GALAXY 37 (G-37)        
1 57493U 23112A   26199.22128090  .00000000  00000+0  00000+0 0  9996
2 57493   0.0204  57.5334 0002062  57.5568 133.6045  1.00270260 10853
